SITRO-AIS C             
1 59053U 24039C   24075.15310003  .00018409  00000+0  78296-3 0  9997
2 59053  97.3841  38.3283 0019867 180.9447 179.1755 15.22889595  2255
SITRO-AIS 31            
1 59054U 24039D   24075.15241468  .00018381  00000+0  77987-3 0  9991
2 59054  97.3841  38.3291 0019718 180.9364 179.1839 15.22974594  2277
SITRO-AIS 33            
1 59055U 24039E   24075.15149280  .00018666  00000+0  78984-3 0  9995
2 59055  97.3843  38.3312 0019428 181.3222 178.7967 15.23067889  2267
SITRO-AIS F             
1 59056U 24039F   24075.15080170  .00018128  00000+0  76575-3 0  9995
2 59056  97.3843  38.3317 0019238 181.4932 178.6250 15.23135239  2260
SITRO-AIS G             
1 59057U 24039G   24075.15136263  .00018249  00000+0  77225-3 0  9998
2 59057  97.3843  38.3311 0019170 181.6244 178.4933 15.23074662  2266
SITRO-AIS 35            
1 59058U 24039H   24075.15118854  .00018607  00000+0  78670-3 0  9998
2 59058  97.3843  38.3322 0019338 181.5432 178.5749 15.23098200  2263
SITRO-AIS 36            
1 59059U 24039J   24075.15013621  .00018227  00000+0  76847-3 0  9997
2 59059  97.3843  38.3329 0018934 181.4517 178.6668 15.23204088  2269
SITRO-AIS 49            
1 59060U 24039K   24075.14989037  .00017145  00000+0  72283-3 0  9999
2 59060  97.3842  38.3333 0018909 181.3998 178.7189 15.23218525  2269
SITRO-AIS 50            
1 59061U 24039L   24075.14955650  .00019517  00000+0  82090-3 0  9996
2 59061  97.3842  38.3340 0018897 181.3255 178.7935 15.23271140  2261
SITRO-AIS 51            
1 59062U 24039M   24075.14922546  .00017496  00000+0  73590-3 0  9994
2 59062  97.3843  38.3342 0018817 181.2132 178.9062 15.23295178  2260
SITRO-AIS 52            
1 59063U 24039N   24075.14854473  .00018689  00000+0  78395-3 0  9991
2 59063  97.3843  38.3351 0018659 180.9432 179.1773 15.23375801  2268
SITRO-AIS 25            
1 59066U 24039R   24075.16012499  .00006778  00000+0  67020-3 0  9999
2 59066  95.3947  33.7882 0173581 306.5717  51.9633 14.81413755  2187
SITRO-AIS 26            
1 59067U 24039S   24075.15987989  .00006977  00000+0  68982-3 0  9993
2 59067  95.3946  33.7882 0173341 306.5985  51.9392 14.81436410  2183
SITRO-AIS 27            
1 59068U 24039T   24075.15889813  .00007732  00000+0  76244-3 0  9991
2 59068  95.3948  33.7900 0173138 306.4926  52.0448 14.81539203  2183
SITRO-AIS 28            
1 59071U 24039U   24075.15852528  .00007337  00000+0  72329-3 0  9999
2 59071  95.3949  33.7907 0173014 306.4965  52.0420 14.81574251  2183
HULIANWAN GAOGUI-01 (H*)
1 59069U 24040A   24073.71736125  .00000146  00000+0  00000+0 0  9996
2 59069   0.0576 314.0173 0002755  77.1796  72.5262  1.00268777   297
PARS 1                  
1 59065U 24039Q   24075.14108837  .00006798  00000+0  28287-3 0  9992
2 59065  97.3844  38.3449 0015260 172.3185 187.8289 15.23976842  2242
ZORKIY-2M 2             
1 59064U 24039P   24075.14823742  .00016004  00000+0  67235-3 0  9997
2 59064  97.3844  38.3355 0018321 180.8859 179.2349 15.23363894  2272
CZ-3B R/B               
1 59070U 24040B   24073.69058404  .00063801  19132-6  34393-2 0  9997
2 59070  27.6334 346.5868 7212772 187.2395 149.4848  2.40131703   325
MARAFON-D GVM           
1 59072U 24039V   24074.90723554  .00000495  00000+0  13726-3 0  9992
2 59072  88.9999  22.0887 0014597 242.0961 117.8765 14.45075968  2101
FREGAT R/B              
1 59073U 24039W   24074.87865468  .00000364  00000+0  93469-4 0  9998
2 59073  89.0054  22.0846 0032629 228.5198 131.3206 14.47915411  2095
STARLINK-31265          
1 59074U 24041A   24075.16667824 -.01611011  00000+0 -12523-1 0  9990
2 59074  43.0009  79.2531 0001300 281.3661  41.0390 15.73657909  3508
STARLINK-31276          
1 59075U 24041B   24075.16667824 -.01607533  00000+0 -12496-1 0  9994
2 59075  43.0011  79.2481 0001306 273.5507  50.8583 15.73651614  3547
STARLINK-31259          
1 59076U 24041C   24075.16667824 -.01605037  00000+0 -12475-1 0  9999
2 59076  43.0008  79.2427 0001607 279.6204  46.7906 15.73646978  3505
STARLINK-31281          
1 59077U 24041D   24075.16667824 -.01606535  00000+0 -12489-1 0  9999
2 59077  43.0010  79.2373 0001633 282.5226  45.8896 15.73645037  3553
STARLINK-31274          
1 59078U 24041E   24075.16667824 -.01606702  00000+0 -12493-1 0  9991
2 59078  43.0008  79.2321 0001504 280.8434  49.5706 15.73641724  3508
STARLINK-31257          
1 59079U 24041F   24075.16667824 -.01609161  00000+0 -12516-1 0  9990
2 59079  43.0007  79.2269 0001403 281.0337  51.3834 15.73640029  3502
STARLINK-31299          
1 59080U 24041G   24075.16667824 -.01607013  00000+0 -12499-1 0  9996
2 59080  43.0007  79.2220 0001575 277.7748  56.6457 15.73634955  3554
STARLINK-31292          
1 59081U 24041H   24075.16667824 -.01604022  00000+0 -12476-1 0  9999
2 59081  43.0006  79.2172 0001545 282.4578  53.9640 15.73629474  3511
STARLINK-31286          
1 59082U 24041J   24075.16667824 -.01438553  00000+0 -11351-1 0  9995
2 59082  43.0008  79.2117 0001398 249.3065  89.2652 15.73459074  3503
