OBJECT_NAME,OBJECT_ID,EPOCH,MEAN_MOTION,ECCENTRICITY,INCLINATION,RA_OF_ASC_NODE,ARG_OF_PERICENTER,MEAN_ANOMALY,EPHEMERIS_TYPE,CLASSIFICATION_TYPE,NORAD_CAT_ID,ELEMENT_SET_NO,REV_AT_EPOCH,BSTAR,MEAN_MOTION_DOT,MEAN_MOTION_DDOT
SITRO-AIS 30,2024-039C,2024-03-15T03:40:27.842592,15.22889595,0.0019867,97.3841,38.3283,180.9447,179.1755,0,U,59053,999,225,0.00078296,0.00018409,0
SITRO-AIS 31,2024-039D,2024-03-15T03:39:28.628352,15.22974594,0.0019718,97.3841,38.3291,180.9364,179.1839,0,U,59054,999,227,0.00077987,0.00018381,0
SITRO-AIS 33,2024-039E,2024-03-15T03:38:08.977920,15.23067889,0.0019428,97.3843,38.3312,181.3222,178.7967,0,U,59055,999,226,0.00078984,0.00018666,0
SITRO-AIS 35,2024-039F,2024-03-15T03:37:09.266880,15.23135239,0.0019238,97.3843,38.3317,181.4932,178.625,0,U,59056,999,226,0.00076575,0.00018128,0
SITRO-AIS 32,2024-039G,2024-03-15T03:37:57.731232,15.23074662,0.001917,97.3843,38.3311,181.6244,178.4933,0,U,59057,999,226,0.00077225,0.00018249,0
SITRO-AIS 34,2024-039H,2024-03-15T03:37:42.689856,15.230982,0.0019338,97.3843,38.3322,181.5432,178.5749,0,U,59058,999,226,0.0007867,0.00018607,0
SITRO-AIS 36,2024-039J,2024-03-15T03:36:11.768544,15.23204088,0.0018934,97.3843,38.3329,181.4517,178.6668,0,U,59059,999,226,0.00076847,0.00018227,0
SITRO-AIS 49,2024-039K,2024-03-15T03:35:50.527968,15.23218525,0.0018909,97.3842,38.3333,181.3998,178.7189,0,U,59060,999,226,0.00072283,0.00017145,0
SITRO-AIS 50,2024-039L,2024-03-15T03:35:21.681600,15.2327114,0.0018897,97.3842,38.334,181.3255,178.7935,0,U,59061,999,226,0.0008209,0.00019517,0
SITRO-AIS 51,2024-039M,2024-03-15T03:34:53.079744,15.23295178,0.0018817,97.3843,38.3342,181.2132,178.9062,0,U,59062,999,226,0.0007359,0.00017496,0
SITRO-AIS 52,2024-039N,2024-03-15T03:33:54.264672,15.23375801,0.0018659,97.3843,38.3351,180.9432,179.1773,0,U,59063,999,226,0.00078395,0.00018689,0
ZORKIY-2M 2,2024-039P,2024-03-15T03:33:27.713088,15.23363894,0.0018321,97.3844,38.3355,180.8859,179.2349,0,U,59064,999,227,0.00067235,0.00016004,0
PARS 1,2024-039Q,2024-03-15T03:23:10.035168,15.23976842,0.001526,97.3844,38.3449,172.3185,187.8289,0,U,59065,999,224,0.00028287,6.798e-05,0
SITRO-AIS 25,2024-039R,2024-03-15T03:50:34.799136,14.81413755,0.0173581,95.3947,33.7882,306.5717,51.9633,0,U,59066,999,218,0.0006702,6.778e-05,0
SITRO-AIS 26,2024-039S,2024-03-15T03:50:13.622496,14.8143641,0.0173341,95.3946,33.7882,306.5985,51.9392,0,U,59067,999,218,0.00068982,6.977e-05,0
SITRO-AIS 27,2024-039T,2024-03-15T03:48:48.798432,14.81539203,0.0173138,95.3948,33.79,306.4926,52.0448,0,U,59068,999,218,0.00076244,7.732e-05,0
HULIANWAN GAOGUI-01 (HG-01),2024-040A,2024-03-13T17:13:00.012000,1.00268777,0.0002755,0.0576,314.0173,77.1796,72.5262,0,U,59069,999,29,0,1.46e-06,0
CZ-3B R/B,2024-040B,2024-03-13T16:34:26.461056,2.40131703,0.7212772,27.6334,346.5868,187.2395,149.4848,0,U,59070,999,32,0.0034393,0.00063801,1.9132e-07
SITRO-AIS 28,2024-039U,2024-03-15T03:48:16.584192,14.81574251,0.0173014,95.3949,33.7907,306.4965,52.042,0,U,59071,999,218,0.00072329,7.337e-05,0
MARAFON-D GVM,2024-039V,2024-03-14T21:46:25.150656,14.45075968,0.0014597,88.9999,22.0887,242.0961,117.8765,0,U,59072,999,210,0.00013726,4.95e-06,0
FREGAT R/B,2024-039W,2024-03-14T21:05:15.764352,14.47915411,0.0032629,89.0054,22.0846,228.5198,131.3206,0,U,59073,999,209,9.3469e-05,3.64e-06,0
STARLINK-31265,2024-041A,2024-03-15T04:00:00.999936,15.73657909,0.00013,43.0009,79.2531,281.3661,41.039,0,U,59074,999,350,-0.012523,-0.01611011,0
STARLINK-31276,2024-041B,2024-03-15T04:00:00.999936,15.73651614,0.0001306,43.0011,79.2481,273.5507,50.8583,0,U,59075,999,354,-0.012496,-0.01607533,0
STARLINK-31259,2024-041C,2024-03-15T04:00:00.999936,15.73646978,0.0001607,43.0008,79.2427,279.6204,46.7906,0,U,59076,999,350,-0.012475,-0.01605037,0
STARLINK-31281,2024-041D,2024-03-15T04:00:00.999936,15.73645037,0.0001633,43.001,79.2373,282.5226,45.8896,0,U,59077,999,355,-0.012489,-0.01606535,0
STARLINK-31274,2024-041E,2024-03-15T04:00:00.999936,15.73641724,0.0001504,43.0008,79.2321,280.8434,49.5706,0,U,59078,999,350,-0.012493,-0.01606702,0
STARLINK-31257,2024-041F,2024-03-15T04:00:00.999936,15.73640029,0.0001403,43.0007,79.2269,281.0337,51.3834,0,U,59079,999,350,-0.012516,-0.01609161,0
STARLINK-31299,2024-041G,2024-03-15T04:00:00.999936,15.73634955,0.0001575,43.0007,79.222,277.7748,56.6457,0,U,59080,999,355,-0.012499,-0.01607013,0
STARLINK-31292,2024-041H,2024-03-15T04:00:00.999936,15.73629474,0.0001545,43.0006,79.2172,282.4578,53.964,0,U,59081,999,351,-0.012476,-0.01604022,0
STARLINK-31286,2024-041J,2024-03-15T04:00:00.999936,15.73459074,0.0001398,43.0008,79.2117,249.3065,89.2652,0,U,59082,999,350,-0.011351,-0.01438553,0
